{"fetched_at":"2026-04-24T16:54:34Z","count":1315,"tles":[{"name":"SL-14 R/B","line1":"1 17567U 87024B   26113.54750943  .00000337  00000+0  35446-4 0  9995","line2":"2 17567  82.5295  50.5975 0019742 110.3802 249.9538 14.86172937 94795","category":"Other"},{"name":"SL-16 R/B","line1":"1 19650U 88102B   26114.11114322 -.00000167  00000+0 -59956-4 0  9992","line2":"2 19650  71.0000  55.9214 0016248 297.0972  62.8493 14.16157478933320","category":"Other"},{"name":"SL-14 R/B","line1":"1 16882U 86055B   26113.99695509  .00000340  00000+0  36333-4 0  9992","line2":"2 16882  82.5184  84.0729 0018874 177.4319 249.7089 14.85680751126097","category":"Other"},{"name":"SL-3 R/B","line1":"1 12904U 81103B   26114.14610869  .00003296  00000+0  14358-3 0  9991","line2":"2 12904  81.1583 160.0986 0014241 130.7866 229.4604 15.21838328980147","category":"Other"},{"name":"SL-3 R/B","line1":"1 14208U 83075B   26114.13693047  .00008995  00000+0  22991-3 0  9991","line2":"2 14208  97.6134 120.4737 0022969  69.5512 290.8196 15.39426162337149","category":"Other"},{"name":"SL-8 R/B","line1":"1 21088U 91006B   26114.16864632  .00000155  00000+0  14031-3 0  9997","line2":"2 21088  82.9401 136.2245 0020935 267.5907 159.9043 13.77503818770337","category":"Other"},{"name":"CZ-4B R/B","line1":"1 25732U 99025C   26114.09188203  .00000025  00000+0  33033-4 0  9991","line2":"2 25732  98.6538 157.2783 0036530 212.7916 174.6668 14.18273702394603","category":"Other"},{"name":"COSMOS 1833","line1":"1 17589U 87027A   26113.59962766 -.00000227  00000+0 -95775-4 0  9996","line2":"2 17589  70.9164 231.6160 0022429 145.1564 215.1031 14.13034628 16667","category":"Other"},{"name":"AJISAI (EGS)","line1":"1 16908U 86061A   26114.17728424 -.00000084  00000+0  92087-4 0  9996","line2":"2 16908  50.0102 313.4763 0011425  43.6857  61.8011 12.44515926473669","category":"Other"},{"name":"SL-16 R/B","line1":"1 20625U 90046B   26114.22264707  .00000008  00000+0  28507-4 0  9991","line2":"2 20625  70.9992 202.2831 0016132 239.2960 120.6573 14.15014958854835","category":"Other"},{"name":"CYGNUS NG-23","line1":"1 65616U 25208A   26073.41651519  .00013590  00000+0  24569-3 0  9997","line2":"2 65616  51.6322  48.9706 0007782 192.9507 167.1283 15.49977850   324","category":"Other"},{"name":"CREW DRAGON 11","line1":"1 65077U 25166A   26014.88606923  .00006740  00000+0  12902-3 0  9993","line2":"2 65077  51.6333 338.3791 0007761  18.9639 341.1637 15.49293899547885","category":"Other"},{"name":"SL-14 R/B","line1":"1 11672U 80005B   26114.16298219  .00000450  00000+0  42950-4 0  9994","line2":"2 11672  82.5124 264.0853 0016063  17.3244 342.8520 14.90979670483265","category":"Other"},{"name":"FREGAT DEB","line1":"1 49271U 11037PF  26111.21656224  .00003101  00000+0  47935-2 0  9998","line2":"2 49271  51.6429 173.0397 0943553 156.8872 207.7485 12.41014465217975","category":"Other"},{"name":"SL-16 R/B","line1":"1 17590U 87027B   26114.14862551  .00000232  00000+0  13875-3 0  9995","line2":"2 17590  71.0028 180.7015 0003547  29.9708 330.1618 14.17170219 21781","category":"Other"},{"name":"HELIOS 1B","line1":"1 25977U 99064A   26114.17817450  .00001088  00000+0  12533-3 0  9998","line2":"2 25977  98.1654  17.7506 0000431  70.9220 289.2042 14.87855296692020","category":"Other"},{"name":"ATLAS CENTAUR R/B","line1":"1 06155U 72065B   26114.16371500  .00000983  00000+0  13689-3 0  9993","line2":"2 06155  35.0025  39.2279 0033054  32.0064 328.2637 14.77804590847999","category":"Other"},{"name":"COSMOS 1933","line1":"1 18958U 88020A   26114.13579919  .00003251  00000+0  15669-3 0  9997","line2":"2 18958  82.5151 205.9408 0005080  57.6215 302.5509 15.18377253 57123","category":"Other"},{"name":"ASTRO-H (HITOMI)","line1":"1 41337U 16012A   26114.17454306  .00002467  00000+0  14134-3 0  9996","line2":"2 41337  30.9994  62.9538 0009395  69.1754 290.9890 15.10263809559118","category":"Other"},{"name":"ES'HAIL 1","line1":"1 39233U 13044A   26114.07475750  .00000129  00000+0  00000+0 0  9991","line2":"2 39233   0.0554   9.6290 0002268  18.3182 236.5572  1.00269449 46086","category":"Other"},{"name":"RESURS-DK 1","line1":"1 29228U 06021A   26114.15690881  .00001812  00000+0  10854-3 0  9996","line2":"2 29228  69.9297 119.3901 0003124 343.6065  16.5000 15.12977179 94406","category":"Other"},{"name":"CZ-2C R/B","line1":"1 37731U 11030B   26113.62110615  .00000657  00000+0  89100-4 0  9990","line2":"2 37731  97.8614  70.0127 0051751 202.6467 331.1724 14.81350183796749","category":"Other"},{"name":"PROGRESS-MS 32","line1":"1 65586U 25204A   26110.78039753  .00009753  00000+0  18580-3 0  9993","line2":"2 65586  51.6325 224.2241 0006701 330.9223  29.1391 15.48857372554501","category":"Other"},{"name":"COSMOS 2219","line1":"1 22219U 92076A   26113.93486970  .00000363  00000+0  21524-3 0  9997","line2":"2 22219  71.0592 283.4843 0016940 135.5391 224.7095 14.14094274724773","category":"Other"},{"name":"SL-16 R/B","line1":"1 31793U 07029B   26114.17060700  .00000292  00000+0  17619-3 0  9995","line2":"2 31793  70.9742  76.7770 0002538 268.2717 179.3234 14.14843823971801","category":"Other"},{"name":"COSMOS 2278","line1":"1 23087U 94023A   26114.14372134  .00000243  00000+0  15154-3 0  9994","line2":"2 23087  71.0531  79.9964 0010398 309.9820  50.0389 14.14386391651237","category":"Other"},{"name":"SEASAT 1","line1":"1 10967U 78064A   26114.21833598  .00000226  00000+0  10142-3 0  9991","line2":"2 10967 108.0082 221.0245 0002798 261.3948  98.6881 14.46197918513097","category":"Other"},{"name":"TIANZHOU-9","line1":"1 64786U 25149A   26113.54209464  .00023003  00000+0  25056-3 0  9997","line2":"2 64786  41.4673 294.8032 0006745 259.8887 100.1192 15.62838201284076","category":"Other"},{"name":"SL-8 R/B","line1":"1 12139U 81003B   26113.34263809  .00011103  00000+0  27546-3 0  9998","line2":"2 12139  82.9363 248.6693 0256577  23.5105 337.7608 15.12759593321428","category":"Other"},{"name":"KONDOR-FKA NO. 1","line1":"1 56756U 23074A   26114.16236692  .00003137  00000+0  14985-3 0  9997","line2":"2 56756  97.4386 309.5025 0001698  86.8226 273.3203 15.19765404161480","category":"Other"},{"name":"STARLINK-31784","line1":"1 59618U 24080T   26114.09799769  .00001320  00000+0  57480-4 0  9996","line2":"2 59618  42.9997 145.2308 0001634 288.9524  71.1150 15.27580745111435","category":"Starlink"},{"name":"COSMOS 2510","line1":"1 41032U 15066A   26112.70545845 -.00000297  00000+0  00000+0 0  9995","line2":"2 41032  63.4960 353.8482 7208951 274.6244  13.7634  2.01011154 76354","category":"Other"},{"name":"BEIDOU-3 M17","line1":"1 43706U 18093A   26112.46349037  .00000003  00000+0  00000+0 0  9990","line2":"2 43706  54.1670 184.1871 0008918 291.4919  66.1522  1.86228281 50494","category":"GPS"},{"name":"FLOCK 4V-14","line1":"1 46286U 20061Q   24324.73006425  .13633800  23754-5  13272-2 0  9994","line2":"2 46286  97.3185  43.3916 0008029 316.5057  43.5608 16.38351487234194","category":"Other"},{"name":"AMICALSAT","line1":"1 46287U 20061R   25010.85863821  .11283921  24654-5  56408-3 0  9994","line2":"2 46287  97.2840  89.8720 0009935 281.1985  78.8199 16.41970930241877","category":"Other"},{"name":"GOKTURK 2","line1":"1 39030U 12073A   26114.16843057  .00000019  00000+0  96720-5 0  9994","line2":"2 39030  97.6857 314.2985 0001835 102.7727 257.3688 14.75486757716540","category":"Other"},{"name":"FLOCK 4V-8","line1":"1 46288U 20061S   23361.75051452  .00025122  00000+0  77935-3 0  9996","line2":"2 46288  97.3803  69.6297 0003550  99.8344 260.3299 15.33381380183366","category":"Other"},{"name":"ISS DEB","line1":"1 47853U 98067RZ  24068.03715527  .04326707  12436-4  25186-3 0  9991","line2":"2 47853  51.6054 359.3486 0002766 253.9051 215.3296 16.41769315170777","category":"ISS"},{"name":"2024-094D","line1":"1 59808U 24094D   26114.07739389  .00005325  00000+0  27190-3 0  9995","line2":"2 59808  97.3862 186.0721 0008155  78.0600 282.1548 15.17090686106956","category":"Other"},{"name":"STARLINK-1393","line1":"1 45678U 20035X   23362.43908386  .00001189  00000+0  98717-4 0  9991","line2":"2 45678  53.0549  58.0678 0001515  85.7590 274.3572 15.06387692197541","category":"Starlink"},{"name":"METEOR-M2 4","line1":"1 59051U 24039A   26114.16066376  .00000021  00000+0  28946-4 0  9992","line2":"2 59051  98.6973  74.1506 0006571 335.3168  24.7695 14.22423605111583","category":"Weather"},{"name":"GLOBAL-14","line1":"1 49469U 21106A   26113.67709300  .00019767  00000+0  37189-3 0  9997","line2":"2 49469  42.0039 254.3871 0014898 359.4389   0.6435 15.48011110249671","category":"Other"},{"name":"SARSAT 13 (METOP-B)","line1":"1 38771U 12049A   26114.19931391  .00000077  00000+0  55203-4 0  9994","line2":"2 38771  98.6552 166.7633 0003332 128.6190 231.5286 14.21432480705595","category":"Weather"},{"name":"SMAP","line1":"1 40376U 15003A   26114.19977972  .00000339  00000+0  74592-4 0  9999","line2":"2 40376  98.1297 122.0548 0001823  78.7924 281.3483 14.63389490599729","category":"Other"},{"name":"CLOUDSAT","line1":"1 29107U 06016A   26105.13731005  .00000553  00000+0  69798-4 0  9991","line2":"2 29107  98.3993 138.9195 0005614 162.8073 197.3331 14.86266098 65144","category":"Other"},{"name":"CALIPSO","line1":"1 29108U 06016B   26105.16781536  .00000590  00000+0  10906-3 0  9996","line2":"2 29108  98.4509 118.6797 0001775  99.4388 260.7017 14.69231416 63804","category":"Other"},{"name":"COSMOS 2542","line1":"1 44797U 19079A   23297.23228983  .16154547  26690-5  82721-3 0  9991","line2":"2 44797  97.6189  44.3452 0008269 277.8821 166.3779 16.42095543216406","category":"Other"},{"name":"SARAL","line1":"1 39086U 13009A   26114.13137105  .00000068  00000+0  41103-4 0  9990","line2":"2 39086  98.5565 301.3810 0003015  87.0061 273.1468 14.32842089687860","category":"Other"},{"name":"SOLRAD 7B","line1":"1 01291U 65016D   26105.15456772  .00000002  00000+0  40344-4 0  9992","line2":"2 01291  70.0817  10.2722 0022370 209.9853 149.9973 13.94967938107911","category":"Other"}]}